GOES 19                 
1 60133U 24119A   26064.56830131 -.00000256  00000+0  00000+0 0  9997
2 60133   0.0202 333.4083 0001045  52.2485 267.0300  1.00271699  5928
FENGYUN 3H              
1 65815U 25219A   26064.52675697  .00000135  00000+0  83972-4 0  9990
2 65815  98.6682   7.3614 0001376  64.3220 295.8098 14.19931329 22671
