[{"OBJECT_NAME":"GOES 19","OBJECT_ID":"2024-119A","EPOCH":"2026-03-05T13:38:21.233184","MEAN_MOTION":1.00271699,"ECCENTRICITY":0.00010452,"INCLINATION":0.0202,"RA_OF_ASC_NODE":333.4083,"ARG_OF_PERICENTER":52.2485,"MEAN_ANOMALY":267.03,"EPHEMERIS_TYPE":0,"CLASSIFICATION_TYPE":"U","NORAD_CAT_ID":60133,"ELEMENT_SET_NO":999,"REV_AT_EPOCH":592,"BSTAR":0,"MEAN_MOTION_DOT":-2.56e-6,"MEAN_MOTION_DDOT":0},{"OBJECT_NAME":"FENGYUN 3H","OBJECT_ID":"2025-219A","EPOCH":"2026-03-05T12:38:31.802208","MEAN_MOTION":14.19931329,"ECCENTRICITY":0.00013763,"INCLINATION":98.6682,"RA_OF_ASC_NODE":7.3614,"ARG_OF_PERICENTER":64.322,"MEAN_ANOMALY":295.8098,"EPHEMERIS_TYPE":0,"CLASSIFICATION_TYPE":"U","NORAD_CAT_ID":65815,"ELEMENT_SET_NO":999,"REV_AT_EPOCH":2267,"BSTAR":8.3972083e-5,"MEAN_MOTION_DOT":1.35e-6,"MEAN_MOTION_DDOT":0}]
